[{"OBJECT_NAME":"STARLINK-35502","OBJECT_ID":"2025-259P","EPOCH":"2026-03-09T22:30:57.169152","MEAN_MOTION":15.27602294,"ECCENTRICITY":0.0001765,"INCLINATION":43.0042,"RA_OF_ASC_NODE":272.5654,"ARG_OF_PERICENTER":281.8342,"MEAN_ANOMALY":78.2312,"EPHEMERIS_TYPE":0,"CLASSIFICATION_TYPE":"U","NORAD_CAT_ID":66435,"ELEMENT_SET_NO":999,"REV_AT_EPOCH":1953,"BSTAR":0.00099151623,"MEAN_MOTION_DOT":0.00027141,"MEAN_MOTION_DDOT":0},{"OBJECT_NAME":"OBJECT C","OBJECT_ID":"2026-023C","EPOCH":"2026-03-09T17:14:42.726048","MEAN_MOTION":15.23105823,"ECCENTRICITY":0.00205519,"INCLINATION":96.6388,"RA_OF_ASC_NODE":141.6892,"ARG_OF_PERICENTER":122.5463,"MEAN_ANOMALY":237.7764,"EPHEMERIS_TYPE":0,"CLASSIFICATION_TYPE":"U","NORAD_CAT_ID":67676,"ELEMENT_SET_NO":999,"REV_AT_EPOCH":502,"BSTAR":0.00045389382,"MEAN_MOTION_DOT":0.00010715,"MEAN_MOTION_DDOT":0}]
